# snapshot: 2026-10-04
# source: celestrak.org GROUP=starlink  (120 satellites)
STARLINK-1008
1 44714U 19074B   26276.98450908  .00033530  00000+0  32660-3 0  9990
2 44714  53.1454 260.9225 0002899  91.3394 268.7954 15.65955905381189
STARLINK-1012
1 44718U 19074F   26276.97060533  .00035152  00000+0  33842-3 0  9999
2 44718  53.1482 261.1881 0005885  43.2647 316.8830 15.66210644381172
STARLINK-1017
1 44723U 19074L   26276.72065284  .00034214  00000+0  84155-3 0  9997
2 44723  53.0429 279.3165 0005559  37.7925 322.3468 15.40319432380860
STARLINK-1020
1 44725U 19074N   26276.74572385  .00042756  00000+0  34145-3 0  9990
2 44725  53.1496 282.0909 0004213  50.2602 309.8787 15.70704449380843
STARLINK-1036
1 44741U 19074AE  26277.00002315  .00187761  25235-4  43077-3 0  9991
2 44741  53.0317 232.4234 0005042  74.2381 167.4095 15.96955876  6039
STARLINK-1039
1 44744U 19074AH  26276.87934479  .00037340  00000+0  10448-2 0  9993
2 44744  53.0573 326.9518 0002905  52.3618 307.7647 15.36316580380219
STARLINK-1042
1 44747U 19074AL  26276.97871767  .00060285  00000+0  67123-3 0  9994
2 44747  53.0394 167.0895 0005880  98.7768 261.3911 15.62276798382485
STARLINK-1043
1 44748U 19074AM  26276.67005081  .00057923  00000+0  38041-3 0  9992
2 44748  53.0428 255.4358 0003199  51.4816 308.6490 15.75173213381197
STARLINK-1046
1 44751U 19074AQ  26276.72260595  .00046856  00000+0  34488-3 0  9999
2 44751  53.0410 280.6095 0004722  42.0257 318.1122 15.72599344380841
STARLINK-1047
1 44752U 19074AR  26276.54184380  .00035597  00000+0  90118-3 0  9999
2 44752  53.0657 250.9067 0003666  92.2280 267.9144 15.39429076381273
STARLINK-1048
1 44753U 19074AS  26276.44341925  .00079971  00000+0  38282-3 0  9997
2 44753  53.0382 223.9067 0007107  79.2777 280.9045 15.82054339381605
STARLINK-1063
1 44768U 19074BH  26276.94294848  .00073038  00000+0  75053-3 0  9994
2 44768  53.1482 303.7538 0003354  19.7164 340.3980 15.64262536380598
STARLINK-1114
1 44927U 20001P   26276.85162645  .00102061  00000+0  39091-3 0  9993
2 44927  53.0347  22.2643 0001427 300.2126  59.8756 15.86671809372763
STARLINK-1123
1 44930U 20001S   26276.96242790  .00048817  00000+0  34795-3 0  9993
2 44930  53.1374  58.9813 0002256 322.3057  37.7804 15.73349324372299
STARLINK-1094
1 44941U 20001AD  26276.92114894  .00037766  00000+0  33802-3 0  9993
2 44941  53.1457  37.9592 0002368  77.0108 283.1173 15.67998355372595
STARLINK-1122
1 44949U 20001AM  26276.69752911  .00041342  00000+0  37548-3 0  9999
2 44949  53.1482  39.9285 0001769  67.2481 292.8723 15.67596464372549
STARLINK-1080
1 44961U 20001AZ  26275.92387035  .00082558  00000+0  37381-3 0  9998
2 44961  53.0412 348.9986 0002023  33.2932 326.8217 15.83262405373151
STARLINK-1090
1 44968U 20001BG  26276.96489841  .00038082  00000+0  33293-3 0  9999
2 44968  53.1416  29.4578 0001622  72.0903 288.0291 15.68572074372715
STARLINK-1132
1 45044U 20006A   26276.85711721  .00050477  00000+0  33337-3 0  9994
2 45044  53.1466 323.5576 0004177  15.5310 344.5838 15.75099601369409
STARLINK-1131
1 45047U 20006D   26276.95748627  .00036032  00000+0  32394-3 0  9996
2 45047  53.1504   0.5889 0000334 188.8118 171.2893 15.67912597368892
STARLINK-1134
1 45048U 20006E   26276.38887786  .00037994  00000+0  30336-3 0  9996
2 45048  53.0189 308.1299 0005389  90.1780 269.9854 15.70755718369536
STARLINK-1156
1 45054U 20006L   26276.59870804  .00052870  00000+0  11106-2 0  9992
2 45054  53.1534  26.0944 0002115 351.1184   8.9786 15.44852143368505
STARLINK-1166
1 45060U 20006S   26276.87276269  .00076899  00000+0  38207-3 0  9994
2 45060  53.0366 333.5277 0006453  10.2449 349.8703 15.81272470369221
STARLINK-1169
1 45061U 20006T   26276.58493461  .00049129  00000+0  87160-3 0  9996
2 45061  53.1486  21.3199 0003407 321.4636  38.6130 15.49766037368577
STARLINK-1171
1 45062U 20006U   26277.04112670  .01143198  11829-4  56366-3 0  9991
2 45062  53.0215 284.7411 0001970  83.9935 276.1328 16.20304855369917
STARLINK-1133
1 45064U 20006W   26276.51468056  .00038772  00000+0  82395-3 0  9991
2 45064  53.1531   3.3713 0003405   1.4329 358.6687 15.44647231368824
STARLINK-1167
1 45071U 20006AD  26276.95373258  .00035065  00000+0  68359-3 0  9992
2 45071  53.1531 358.0205 0002390 313.2305  46.8503 15.47218758368934
STARLINK-1168
1 45072U 20006AE  26276.51612503  .00039316  00000+0  81353-3 0  9996
2 45072  53.1537   3.0892 0002982   2.7017 357.4005 15.45425899368827
STARLINK-1172
1 45074U 20006AG  26276.95775417  .00039310  00000+0  72715-3 0  9996
2 45074  53.1517 356.3947 0002251 341.4438  18.6489 15.48676954368950
STARLINK-1153
1 45080U 20006AN  26276.53170993  .00042423  00000+0  79636-3 0  9993
2 45080  53.1525 359.7639 0004511 323.4329  36.6371 15.48213850368874
STARLINK-1185
1 45087U 20006AV  26276.44395904  .00050198  00000+0  62936-3 0  9994
2 45087  53.1524 332.0200 0004222  19.8269 340.2907 15.59268167369251
STARLINK-1183
1 45088U 20006AW  26276.80629166  .00030739  00000+0  65810-3 0  9998
2 45088  53.1540 346.9021 0002558  18.5160 341.5939 15.44543915369071
STARLINK-1152
1 45096U 20006BE  26276.65730424  .00065389  00000+0  70990-3 0  9994
2 45096  53.0260 287.2356 0003124  65.2176 294.9162 15.62905062369852
STARLINK-1184
1 45098U 20006BG  26276.29960812  .00013728  00000+0  66195-3 0  9994
2 45098  53.0515  21.1836 0003450  55.5993 304.5328 15.18991525368509
STARLINK-1193
1 45100U 20006BJ  26276.56877577  .00090421  00000+0  41344-3 0  9997
2 45100  53.0389 283.4105 0006536  18.0942 342.0312 15.82992694369892
STARLINK-1202
1 45183U 20012F   26276.89254276  .00081582  00000+0  17270-2 0  9994
2 45183  53.1513 143.3485 0002349 145.5306 214.5854 15.44432064366952
STARLINK-1216
1 45185U 20012H   26276.36587273  .00142177  00000+0  24324-2 0  9990
2 45185  53.1509 143.7024 0002364  91.4727 268.6553 15.50290178366844
STARLINK-1225
1 45187U 20012K   26276.91553599  .00037751  00000+0  80883-3 0  9991
2 45187  53.1512 143.3498 0001433 145.5900 214.5200 15.44421897366948
STARLINK-1230
1 45189U 20012M   26276.92518816  .00034377  00000+0  73040-3 0  9995
2 45189  53.1496 143.3514 0002198 144.6651 215.4502 15.44713367364176
STARLINK-1269
1 45197U 20012V   26276.92366262  .00038060  00000+0  80920-3 0  9998
2 45197  53.1501 143.2412 0003205 122.3151 237.8167 15.44642287366928
STARLINK-1154
1 45198U 20012W   26276.14951405  .00046252  00000+0  32204-3 0  9996
2 45198  53.0367  75.8128 0001588  22.3948 337.7139 15.73918802367726
STARLINK-1199
1 45201U 20012Z   26276.88924282  .00028064  00000+0  59887-3 0  9992
2 45201  53.1508 127.6141 0001226 148.9537 211.1543 15.44690329367169
STARLINK-1209
1 45206U 20012AE  26277.00002315  .00109490  00000+0  35190-3 0  9990
2 45206  53.0264  23.5280 0003142 308.3763  79.4746 15.90164418  5976
STARLINK-1231
1 45212U 20012AL  26276.86743696  .00024498  00000+0  72000-3 0  9999
2 45212  53.0351 128.5593 0003687  96.1913 263.9508 15.34994130367063
STARLINK-1271
1 45217U 20012AR  26276.92932495  .00038423  00000+0  80351-3 0  9999
2 45217  53.1514 127.3049 0001427 167.3207 192.7837 15.45128268367179
STARLINK-1191
1 45222U 20012AW  26276.91783965  .00052763  00000+0  78687-3 0  9992
2 45222  53.1485  95.4162 0002139 262.0500  98.0268 15.54583452367629
STARLINK-1212
1 45223U 20012AX  26276.90902995  .00118837  00000+0  42947-3 0  9993
2 45223  53.0346  40.6730 0001506 290.5799  69.5063 15.87794632368347
STARLINK-1215
1 45225U 20012AZ  26276.80004169  .00041715  00000+0  87346-3 0  9992
2 45225  53.1511 102.1872 0001656 189.5199 170.5777 15.45052776367470
STARLINK-1221
1 45227U 20012BB  26276.92844243  .00034194  00000+0  57345-3 0  9991
2 45227  53.0617 356.5425 0002329 315.8253  44.2569 15.51523483368922
STARLINK-1222
1 45228U 20012BC  26276.66613794  .00034762  00000+0  34728-3 0  9999
2 45228  53.0492  54.4285 0001482 171.0790 189.0252 15.65302493368028
STARLINK-1226
1 45229U 20012BD  26276.80598096  .00053135  00000+0  71597-3 0  9993
2 45229  53.1489  89.3302 0001365 233.9999 126.0887 15.57332470367597
STARLINK-1227
1 45230U 20012BE  26276.87468288  .00053365  00000+0  71664-3 0  9991
2 45230  53.1464  89.0227 0002387 219.9690 140.1147 15.57419821367729
STARLINK-1246
1 45235U 20012BK  26276.91142065  .00025242  00000+0  53620-3 0  9998
2 45235  53.1505 142.7185 0003162 170.0496 190.0574 15.44882933366982
STARLINK-1270
1 45237U 20012BM  26276.36175489  .00099082  00000+0  41293-3 0  9991
2 45237  53.0355  46.3668 0000994 261.6810  98.4100 15.84938163368213
STARLINK-1262
1 45366U 20019G   26276.70704999  .00035397  00000+0  77616-3 0  9990
2 45366  53.1491 271.0348 0003739  66.2146 293.9252 15.43762113361714
STARLINK-1273
1 45367U 20019H   26276.48903871  .00041580  00000+0  33469-3 0  9995
2 45367  53.0367 224.5718 0003392  81.1419 278.9981 15.70528171362306
STARLINK-1276
1 45368U 20019J   26276.35896864  .00008123  00000+0  39859-3 0  9990
2 45368  53.0727 302.2846 0002563  48.1889 311.9324 15.18955480361213
STARLINK-1277
1 45369U 20019K   26276.52388825  .00096248  00000+0  45291-3 0  9995
2 45369  53.0372 210.5553 0004500  88.0179 272.1358 15.82370787362504
STARLINK-1281
1 45370U 20019L   26276.84389353  .00035303  00000+0  74724-3 0  9997
2 45370  53.1523 269.2924 0005002  79.2276 280.9294 15.44804035361754
STARLINK-1300
1 45374U 20019Q   26276.60002107  .00039209  00000+0  79735-3 0  9990
2 45374  53.1522 269.6862 0004207  67.9406 292.2048 15.45931595361720
STARLINK-1302
1 45375U 20019R   26276.31948261  .00073369  00000+0  36310-3 0  9996
2 45375  53.0367 207.5823 0006925  93.6086 266.5728 15.81371728362528
STARLINK-1304
1 45376U 20019S   26276.20399855  .00054891  00000+0  34554-3 0  9991
2 45376  53.0325 213.2132 0005388  92.9187 267.2449 15.76154833362434
STARLINK-1305
1 45377U 20019T   26276.43809658  .00296365  48812-4  52289-3 0  9991
2 45377  53.0268 179.0140 0004622 151.5235 208.6048 16.01472525362934
STARLINK-1266
1 45383U 20019Z   26276.42118706  .00064369  00000+0  36119-3 0  9997
2 45383  53.0403 195.0546 0001982  96.9785 263.1460 15.78695739362704
STARLINK-1267
1 45384U 20019AA  26276.36365173  .00125807  00000+0  43284-3 0  9999
2 45384  53.0368 181.8211 0004761 112.8079 247.3449 15.88748163362880
STARLINK-1272
1 45386U 20019AC  26277.19572637  .01382403  11883-4  55992-3 0  9991
2 45386  53.0222 148.7616 0007147 251.9873 108.0387 16.22689631363417
STARLINK-1274
1 45387U 20019AD  26276.95922287  .00149734  19366-4  47309-3 0  9999
2 45387  53.0063 158.4146 0005794 146.4964 213.6429 15.91021463363252
STARLINK-1283
1 45389U 20019AF  26277.00002315  .00199676  26517-4  52387-3 0  9997
2 45389  53.0249 153.2235 0003765 158.9882 104.3727 15.94476941  6074
STARLINK-1284
1 45390U 20019AG  26276.47043518  .00143165  00000+0  47442-3 0  9991
2 45390  53.0341 182.1275 0004476  90.7483 269.4055 15.89444058362883
STARLINK-1297
1 45395U 20019AM  26276.93150720  .00292709  47355-4  54677-3 0  9997
2 45395  53.0297 175.1605 0003950 143.7561 216.3737 16.00497806362206
STARLINK-1307
1 45397U 20019AP  26276.44689258  .00027853  00000+0  28375-3 0  9991
2 45397  53.0473 202.4192 0003755  99.8798 260.2640 15.64923183362432
STARLINK-1255
1 45399U 20019AR  26276.11348347  .00069143  00000+0  38713-3 0  9993
2 45399  53.0300 162.2820 0005325 132.3521 227.7951 15.78700523362941
STARLINK-1260
1 45404U 20019AW  26276.89598551  .00039382  00000+0  74234-3 0  9999
2 45404  53.1489 228.9832 0004340  83.4772 276.6731 15.48129622362031
STARLINK-1263
1 45405U 20019AX  26276.89721670  .00019613  00000+0  41802-3 0  9990
2 45405  53.1510 232.7355 0005050  85.3003 274.8580 15.44940512361987
STARLINK-1265
1 45406U 20019AY  26276.49937470  .00050348  00000+0  88618-3 0  9990
2 45406  53.1480 230.1273 0005182  69.4166 290.7399 15.49973097361988
STARLINK-1278
1 45408U 20019BA  26277.13145840  .01298241  11812-4  65417-3 0  9993
2 45408  53.0235 170.6138 0004948 246.1917 113.8602 16.19991260362828
STARLINK-1296
1 45412U 20019BE  26276.88367287  .00037157  00000+0  68811-3 0  9999
2 45412  53.1485 228.2286 0004516  78.8214 281.3302 15.48664974362048
STARLINK-1309
1 45414U 20019BG  26277.00002315  .00194747  25930-4  49023-3 0  9991
2 45414  53.0485 169.1887 0003715 126.9592 116.1647 15.95255702  6075
STARLINK-1316
1 45415U 20019BH  26276.93428010  .00043306  00000+0  76233-3 0  9990
2 45415  53.1484 227.3884 0006026  76.5474 283.6207 15.50031339362084
STARLINK-1286
1 45417U 20019BK  26276.93419312  .00116286  00000+0  55119-3 0  9995
2 45417  53.0355 188.7293 0002599 103.7767 256.3544 15.82146736362832
STARLINK-1308
1 45419U 20019BM  26276.52542755  .00076532  00000+0  42646-3 0  9990
2 45419  53.0390 210.3018 0007180  73.5369 286.6440 15.78750797362242
STARLINK-1329
1 45531U 20025A   26277.27125781  .00961963  64141-3  58610-3 0  9990
2 45531  53.0249 118.2717 0005805 282.8213  77.2175 16.17663529358375
STARLINK-1338
1 45532U 20025B   26276.88682647  .00141267  18514-4  43656-3 0  9991
2 45532  53.0334 132.4984 0002187 134.4380 225.6825 15.91504507358149
STARLINK-1350
1 45535U 20025E   26276.86964013  .00008409  00000+0  19063-3 0  9993
2 45535  53.0671 130.5135 0002263 115.6644 244.4596 15.43980974358228
STARLINK-1362
1 45538U 20025H   26276.40783580  .00046685  00000+0  90232-3 0  9999
2 45538  53.1496 203.8657 0003260 125.5358 234.5954 15.47333699357159
STARLINK-1368
1 45540U 20025K   26276.52565251  .00043207  00000+0  81655-3 0  9994
2 45540  53.1505 203.3964 0004474 107.8171 252.3326 15.48012332357164
STARLINK-1371
1 45542U 20025M   26276.93727924  .00091347  00000+0  39766-3 0  9992
2 45542  53.0363 145.8044 0004649 125.2565 234.8893 15.84043482357963
STARLINK-1372
1 45543U 20025N   26276.26192532  .00037596  00000+0  71279-3 0  9991
2 45543  53.1509 203.8352 0004301 105.0764 255.0721 15.47984531356238
STARLINK-1373
1 45544U 20025P   26276.90121674  .00111170  00000+0  40751-3 0  9994
2 45544  53.0340 139.1056 0003313 126.2410 233.8921 15.87528369358053
STARLINK-1327
1 45555U 20025AA  26276.84561626  .00158520  20538-4  46786-3 0  9991
2 45555  53.0309 114.6199 0002562 156.5738 203.5405 15.92338646358380
STARLINK-1356
1 45564U 20025AK  26276.33316743  .00053618  00000+0  32801-3 0  9995
2 45564  53.0371 138.1831 0002427 105.5986 254.5301 15.76828608358017
STARLINK-1357
1 45565U 20025AL  26276.87398760  .00124876  00000+0  44847-3 0  9992
2 45565  53.0343  86.3250 0003997 188.8442 171.2512 15.87892914358797
STARLINK-1361
1 45567U 20025AN  26276.96831253  .00090443  00000+0  39489-3 0  9991
2 45567  53.0338 129.6759 0003769 131.9624 228.1720 15.83990089358191
STARLINK-1376
1 45570U 20025AR  26276.97483802  .00040449  00000+0  74704-3 0  9999
2 45570  53.1511 176.4015 0004895 108.3770 251.7771 15.48701248357583
STARLINK-1321
1 45573U 20025AU  26276.92825022  .00098288  00000+0  40553-3 0  9990
2 45573  53.0320 113.1788 0003483 145.6362 214.4887 15.85144250358110
STARLINK-1331
1 45578U 20025AZ  26276.91469424  .00098059  00000+0  41757-3 0  9997
2 45578  53.0386 120.5335 0002827 137.3088 222.8154 15.84487907358322
STARLINK-1333
1 45580U 20025BB  26276.99782164  .00022540  00000+0  46596-3 0  9995
2 45580  53.1512 180.3935 0003914 118.9621 241.1779 15.45749490357537
STARLINK-1335
1 45581U 20025BC  26276.43818966  .00048741  00000+0  90819-3 0  9993
2 45581  53.1482 178.2351 0006181 124.9375 235.2215 15.48356481357507
STARLINK-1337
1 45582U 20025BD  26277.23258073  .00575368  18554-3  56088-3 0  9997
2 45582  53.0291  98.0120 0005718 271.9508  88.0871 16.10907660358643
STARLINK-1347
1 45586U 20025BH  26275.74283286  .00099477  00000+0  39941-3 0  9993
2 45586  53.0323  85.2789 0002515 196.6761 163.4180 15.85708510358698
STARLINK-1364
1 45589U 20025BL  26276.26600629  .00100495  00000+0  39223-3 0  9994
2 45589  53.0315 118.7552 0001293 160.2078 199.8996 15.86291653358270
STARLINK-1365
1 45590U 20025BM  26276.93592288  .00060825  00000+0  36196-3 0  9999
2 45590  53.0368 155.2457 0003107 111.2934 248.8417 15.77399331357840
STARLINK-1443
1 45660U 20035D   26276.42089177  .00031702  00000+0  75067-3 0  9992
2 45660  53.1283 174.5114 0004278  99.0402 261.1087 15.41515921350639
STARLINK-1446
1 45663U 20035G   26276.18930498  .00026688  00000+0  40468-3 0  9993
2 45663  53.0186  85.3424 0002472 179.6916 180.4095 15.54453924351827
STARLINK-1448
1 45665U 20035J   26277.02343785  .01422929  11893-4  57542-3 0  9993
2 45665  53.0245  96.0158 0003712 294.0262  66.0388 16.22764282351734
STARLINK-1451
1 45668U 20035M   26276.51478229  .00017033  00000+0  81317-3 0  9996
2 45668  53.0466 200.8743 0002601 105.5992 254.5289 15.19168506350240
STARLINK-1452
1 45669U 20035N   26276.86412131  .00053616  00000+0  38467-3 0  9990
2 45669  53.0177  86.7373 0002177 342.2810  17.8131 15.73152863351861
STARLINK-1454
1 45671U 20035Q   26277.00002315  .00302248  48250-4  66383-3 0  9999
2 45671  53.0317 100.3367 0002502 237.7153 342.4586 15.97641332  6088
STARLINK-1456
1 45673U 20035S   26275.82554807  .00092111  00000+0  39055-3 0  9994
2 45673  53.0357 105.6628 0002993 137.7919 222.3335 15.84602355351512
STARLINK-1458
1 45675U 20035U   26276.84944380  .00083887  00000+0  45175-3 0  9998
2 45675  53.0375 120.1618 0003154 157.5499 202.5660 15.79498969351360
STARLINK-1460
1 45676U 20035V   26276.99262580  .00034839  00000+0  72077-3 0  9994
2 45676  53.1510 167.8206 0003109 114.3302 245.8030 15.45488506350749
STARLINK-1392
1 45677U 20035W   26276.93418700  .00041288  00000+0  75125-3 0  9999
2 45677  53.1474 163.6930 0001597 130.0579 230.0570 15.49126818350831
STARLINK-1394
1 45679U 20035Y   26276.78427513  .00088958  00000+0  43856-3 0  9997
2 45679  53.0313  92.6457 0002718 153.7360 206.3799 15.81407059351773
STARLINK-1402
1 45685U 20035AE  26276.74905544  .00060155  00000+0  37693-3 0  9996
2 45685  53.0335  87.5849 0002269 136.7822 223.3375 15.76236863351852
STARLINK-1404
1 45686U 20035AF  26276.92408407  .00049730  00000+0  67129-3 0  9996
2 45686  53.1496 139.6396 0005085 152.8193 207.3087 15.57301383351173
STARLINK-1413
1 45689U 20035AJ  26276.93346591  .00037896  00000+0  79923-3 0  9990
2 45689  53.1520 153.0972 0003462 134.4136 225.7155 15.44881978350903
STARLINK-1417
1 45693U 20035AN  26276.93223672  .00017877  00000+0  78576-3 0  9999
2 45693  53.0374 183.3759 0004629 132.9750 227.1635 15.21978248350512
STARLINK-1420
1 45695U 20035AQ  26276.76810224  .00154122  19871-4  48328-3 0  9995
2 45695  53.0351  71.1831 0001514 216.0984 143.9939 15.91185465352070
STARLINK-1422
1 45696U 20035AR  26276.92413977  .00040183  00000+0  77706-3 0  9990
2 45696  53.1505 151.5163 0005477 108.5217 251.6386 15.47376692351000
STARLINK-1351
1 45697U 20035AS  26276.85965766  .00075453  00000+0  39429-3 0  9999
2 45697  53.0345  76.3821 0002741 183.8011 176.2989 15.80203258352013
